{
  "type": "FeatureCollection",
  "features": [
    {
      "type": "Feature",
      "properties": {
        "norad_id": 34752,
        "name": "COSMOS 2251 DEB",
        "group": "cosmos-2251-debris",
        "lat": 4.377421673238718,
        "lon": 157.479315284941,
        "alt_km": 557.9472985471284,
        "timestamp": "2025-12-23T11:34:48.555573+00:00",
        "meta_object_name": "COSMOS 2251 DEB",
        "meta_object_id": "1993-036ZW",
        "meta_epoch": "2025-12-23T01:12:09.902304",
        "meta_mean_motion": 15.00151807,
        "meta_eccentricity": 0.0047465,
        "meta_inclination": 74.0138,
        "meta_ra_of_asc_node": 339.6166,
        "meta_arg_of_pericenter": 104.7129,
        "meta_mean_anomaly": 255.9325,
        "meta_ephemeris_type": 0,
        "meta_classification_type": "U",
        "meta_norad_cat_id": 34752,
        "meta_element_set_no": 999,
        "meta_rev_at_epoch": 90004,
        "meta_bstar": 0.0010897,
        "meta_mean_motion_dot": 0.00013923,
        "meta_mean_motion_ddot": 0,
        "tle_line1": "1 34752U 93036ZW  25357.05011461  .00013923  00000+0  10897-2 0  9996",
        "tle_line2": "2 34752  74.0138 339.6166 0047465 104.7129 255.9325 15.00151807900042"
      },
      "geometry": {
        "type": "Point",
        "coordinates": [
          157.479315284941,
          4.377421673238718
        ]
      }
    },
    {
      "type": "Feature",
      "properties": {
        "norad_id": 34754,
        "name": "COSMOS 2251 DEB",
        "group": "cosmos-2251-debris",
        "lat": 7.343975523654519,
        "lon": -150.15327274550268,
        "alt_km": 743.6029009889562,
        "timestamp": "2025-12-23T11:34:48.555583+00:00",
        "meta_object_name": "COSMOS 2251 DEB",
        "meta_object_id": "1993-036ZY",
        "meta_epoch": "2025-12-22T14:01:00.618816",
        "meta_mean_motion": 14.40494534,
        "meta_eccentricity": 0.00299317,
        "meta_inclination": 74.0293,
        "meta_ra_of_asc_node": 209.393,
        "meta_arg_of_pericenter": 323.6263,
        "meta_mean_anomaly": 66.4846,
        "meta_ephemeris_type": 0,
        "meta_classification_type": "U",
        "meta_norad_cat_id": 34754,
        "meta_element_set_no": 999,
        "meta_rev_at_epoch": 88275,
        "meta_bstar": 0.00017314509,
        "meta_mean_motion_dot": 5.27e-06,
        "meta_mean_motion_ddot": 0,
        "tle_line1": "1 34754U 93036ZY  25356.58403494  .00000527  00000+0  17315-3 0  9995",
        "tle_line2": "2 34754  74.0293 209.3930 0029931 323.6263  66.4846 14.40494534882757"
      },
      "geometry": {
        "type": "Point",
        "coordinates": [
          -150.15327274550268,
          7.343975523654519
        ]
      }
    },
    {
      "type": "Feature",
      "properties": {
        "norad_id": 34755,
        "name": "COSMOS 2251 DEB",
        "group": "cosmos-2251-debris",
        "lat": -54.47094851609986,
        "lon": 116.57445648704774,
        "alt_km": 885.471591393045,
        "timestamp": "2025-12-23T11:34:48.555592+00:00",
        "meta_object_name": "COSMOS 2251 DEB",
        "meta_object_id": "1993-036ZZ",
        "meta_epoch": "2025-12-20T18:30:29.240064",
        "meta_mean_motion": 13.50572591,
        "meta_eccentricity": 0.04081275,
        "meta_inclination": 73.9255,
        "meta_ra_of_asc_node": 277.1155,
        "meta_arg_of_pericenter": 295.5233,
        "meta_mean_anomaly": 88.1239,
        "meta_ephemeris_type": 0,
        "meta_classification_type": "U",
        "meta_norad_cat_id": 34755,
        "meta_element_set_no": 999,
        "meta_rev_at_epoch": 82632,
        "meta_bstar": 0.00057435404,
        "meta_mean_motion_dot": 5.95e-06,
        "meta_mean_motion_ddot": 0,
        "tle_line1": "1 34755U 93036ZZ  25354.77117176  .00000595  00000+0  57435-3 0  9996",
        "tle_line2": "2 34755  73.9255 277.1155 0408127 295.5233  88.1239 13.50572591826326"
      },
      "geometry": {
        "type": "Point",
        "coordinates": [
          116.57445648704774,
          -54.47094851609986
        ]
      }
    },
    {
      "type": "Feature",
      "properties": {
        "norad_id": 34756,
        "name": "COSMOS 2251 DEB",
        "group": "cosmos-2251-debris",
        "lat": 68.7244305523529,
        "lon": 134.1534034127235,
        "alt_km": 1105.4835630526777,
        "timestamp": "2025-12-23T11:34:48.555601+00:00",
        "meta_object_name": "COSMOS 2251 DEB",
        "meta_object_id": "1993-036AAA",
        "meta_epoch": "2025-12-22T12:23:20.340096",
        "meta_mean_motion": 13.6726693,
        "meta_eccentricity": 0.03457457,
        "meta_inclination": 74.0031,
        "meta_ra_of_asc_node": 88.2919,
        "meta_arg_of_pericenter": 322.0021,
        "meta_mean_anomaly": 35.7148,
        "meta_ephemeris_type": 0,
        "meta_classification_type": "U",
        "meta_norad_cat_id": 34756,
        "meta_element_set_no": 999,
        "meta_rev_at_epoch": 83555,
        "meta_bstar": 0.0010168028,
        "meta_mean_motion_dot": 1.267e-05,
        "meta_mean_motion_ddot": 0,
        "tle_line1": "1 34756U 93036AAA 25356.51620764  .00001267  00000+0  10168-2 0  9991",
        "tle_line2": "2 34756  74.0031  88.2919 0345745 322.0021  35.7148 13.67266930835554"
      },
      "geometry": {
        "type": "Point",
        "coordinates": [
          134.1534034127235,
          68.7244305523529
        ]
      }
    },
    {
      "type": "Feature",
      "properties": {
        "norad_id": 34758,
        "name": "COSMOS 2251 DEB",
        "group": "cosmos-2251-debris",
        "lat": -12.250716350413098,
        "lon": 105.75420225312216,
        "alt_km": 1287.3386642596888,
        "timestamp": "2025-12-23T11:34:48.555610+00:00",
        "meta_object_name": "COSMOS 2251 DEB",
        "meta_object_id": "1993-036AAC",
        "meta_epoch": "2025-12-23T01:49:17.475744",
        "meta_mean_motion": 13.58107356,
        "meta_eccentricity": 0.0382207,
        "meta_inclination": 74.107,
        "meta_ra_of_asc_node": 282.8618,
        "meta_arg_of_pericenter": 44.1617,
        "meta_mean_anomaly": 318.934,
        "meta_ephemeris_type": 0,
        "meta_classification_type": "U",
        "meta_norad_cat_id": 34758,
        "meta_element_set_no": 999,
        "meta_rev_at_epoch": 83050,
        "meta_bstar": 0.0017021,
        "meta_mean_motion_dot": 1.966e-05,
        "meta_mean_motion_ddot": 0,
        "tle_line1": "1 34758U 93036AAC 25357.07589671  .00001966  00000+0  17021-2 0  9997",
        "tle_line2": "2 34758  74.1070 282.8618 0382207  44.1617 318.9340 13.58107356830501"
      },
      "geometry": {
        "type": "Point",
        "coordinates": [
          105.75420225312216,
          -12.250716350413098
        ]
      }
    },
    {
      "type": "Feature",
      "properties": {
        "norad_id": 34760,
        "name": "COSMOS 2251 DEB",
        "group": "cosmos-2251-debris",
        "lat": -59.695160534077175,
        "lon": -106.07928346875835,
        "alt_km": 777.1449223698619,
        "timestamp": "2025-12-23T11:34:48.555619+00:00",
        "meta_object_name": "COSMOS 2251 DEB",
        "meta_object_id": "1993-036AAE",
        "meta_epoch": "2025-12-23T03:43:05.079360",
        "meta_mean_motion": 14.19595173,
        "meta_eccentricity": 0.009722,
        "meta_inclination": 74.0632,
        "meta_ra_of_asc_node": 283.7721,
        "meta_arg_of_pericenter": 333.614,
        "meta_mean_anomaly": 89.7391,
        "meta_ephemeris_type": 0,
        "meta_classification_type": "U",
        "meta_norad_cat_id": 34760,
        "meta_element_set_no": 999,
        "meta_rev_at_epoch": 86836,
        "meta_bstar": 0.0005327,
        "meta_mean_motion_dot": 1.153e-05,
        "meta_mean_motion_ddot": 0,
        "tle_line1": "1 34760U 93036AAE 25357.15491990  .00001153  00000+0  53270-3 0  9990",
        "tle_line2": "2 34760  74.0632 283.7721 0097220 333.6140  89.7391 14.19595173868367"
      },
      "geometry": {
        "type": "Point",
        "coordinates": [
          -106.07928346875835,
          -59.695160534077175
        ]
      }
    },
    {
      "type": "Feature",
      "properties": {
        "norad_id": 34761,
        "name": "COSMOS 2251 DEB",
        "group": "cosmos-2251-debris",
        "lat": -29.71574982705445,
        "lon": 172.40179025106232,
        "alt_km": 795.6367230060059,
        "timestamp": "2025-12-23T11:34:48.555628+00:00",
        "meta_object_name": "COSMOS 2251 DEB",
        "meta_object_id": "1993-036AAF",
        "meta_epoch": "2025-12-22T06:13:11.730720",
        "meta_mean_motion": 14.38082113,
        "meta_eccentricity": 0.00369228,
        "meta_inclination": 74.0285,
        "meta_ra_of_asc_node": 345.2476,
        "meta_arg_of_pericenter": 16.6856,
        "meta_mean_anomaly": 343.5503,
        "meta_ephemeris_type": 0,
        "meta_classification_type": "U",
        "meta_norad_cat_id": 34761,
        "meta_element_set_no": 999,
        "meta_rev_at_epoch": 87786,
        "meta_bstar": 0.00058755109,
        "meta_mean_motion_dot": 1.768e-05,
        "meta_mean_motion_ddot": 0,
        "tle_line1": "1 34761U 93036AAF 25356.25916355  .00001768  00000+0  58755-3 0  9993",
        "tle_line2": "2 34761  74.0285 345.2476 0036922  16.6856 343.5503 14.38082113877864"
      },
      "geometry": {
        "type": "Point",
        "coordinates": [
          172.40179025106232,
          -29.71574982705445
        ]
      }
    }
  ]
}